[{"OBJECT_NAME":"YUNYAO-1 44","OBJECT_ID":"2025-059B","EPOCH":"2026-03-09T23:37:33.233088","MEAN_MOTION":15.10344945,"ECCENTRICITY":0.00180831,"INCLINATION":97.6069,"RA_OF_ASC_NODE":250.8958,"ARG_OF_PERICENTER":135.5449,"MEAN_ANOMALY":224.7236,"EPHEMERIS_TYPE":0,"CLASSIFICATION_TYPE":"U","NORAD_CAT_ID":63345,"ELEMENT_SET_NO":999,"REV_AT_EPOCH":5332,"BSTAR":0.0003556422,"MEAN_MOTION_DOT":5.791e-5,"MEAN_MOTION_DDOT":0},{"OBJECT_NAME":"FENGYUN 1C DEB","OBJECT_ID":"1999-025ARC","EPOCH":"2026-03-09T09:52:34.584960","MEAN_MOTION":14.8862073,"ECCENTRICITY":0.01277475,"INCLINATION":99.058,"RA_OF_ASC_NODE":51.7347,"ARG_OF_PERICENTER":19.4756,"MEAN_ANOMALY":341.1273,"EPHEMERIS_TYPE":0,"CLASSIFICATION_TYPE":"U","NORAD_CAT_ID":30694,"ELEMENT_SET_NO":999,"REV_AT_EPOCH":1384,"BSTAR":0.0015651053,"MEAN_MOTION_DOT":0.00016942,"MEAN_MOTION_DDOT":0}]
